[{"OBJECT_NAME":"STARLINK-32778","OBJECT_ID":"2025-008S","EPOCH":"2026-03-09T00:02:45.356640","MEAN_MOTION":15.27606177,"ECCENTRICITY":0.00024982,"INCLINATION":43.0038,"RA_OF_ASC_NODE":282.2901,"ARG_OF_PERICENTER":277.9089,"MEAN_ANOMALY":82.1479,"EPHEMERIS_TYPE":0,"CLASSIFICATION_TYPE":"U","NORAD_CAT_ID":62603,"ELEMENT_SET_NO":999,"REV_AT_EPOCH":6545,"BSTAR":0.0012959095,"MEAN_MOTION_DOT":0.00035601,"MEAN_MOTION_DDOT":0},{"OBJECT_NAME":"COSMOS 1862","OBJECT_ID":"1987-055A","EPOCH":"2026-03-09T22:37:02.390592","MEAN_MOTION":15.30492139,"ECCENTRICITY":0.00097484,"INCLINATION":82.4856,"RA_OF_ASC_NODE":47.1862,"ARG_OF_PERICENTER":26.6325,"MEAN_ANOMALY":333.5414,"EPHEMERIS_TYPE":0,"CLASSIFICATION_TYPE":"U","NORAD_CAT_ID":18152,"ELEMENT_SET_NO":999,"REV_AT_EPOCH":8987,"BSTAR":0.00034125048,"MEAN_MOTION_DOT":0.00010107,"MEAN_MOTION_DDOT":0}]
